{
  "norad_id": 52861,
  "name": "STARLINK-4112",
  "history": [
    {
      "epoch": "2026-03-28T20:52:13.691424",
      "apogee_km": 540.6788628240984,
      "perigee_km": 538.7525175639867,
      "latitude_deg": -23.63588980576398,
      "longitude_deg": -90.41812064009719,
      "semi_major_axis_km": 6917.852690194042,
      "eccentricity": 0.00013923,
      "inclination_deg": 53.217,
      "raan_deg": 298.0301,
      "arg_perigee_deg": 86.5539,
      "mean_anomaly_deg": 273.5612,
      "mean_motion_rev_day": 15.08849062
    }
  ]
}