{"fetched_at":"2026-03-29T16:36:15Z","count":15609,"tles":[{"name":"STARLINK-4112","line1":"1 52861U 22062AH  26087.86960291 -.00000164  00000+0  77747-5 0  9996","line2":"2 52861  53.2170 298.0301 0001392  86.5539 273.5612 15.08849062208825","category":"Starlink"}]}